,Longest_Hole_Outs_in_yards_RANK THIS WEEK,Longest_Hole_Outs_in_yards_RANK LAST WEEK,Longest_Hole_Outs_in_yards_PLAYER NAME,Longest_Hole_Outs_in_yards_ROUNDS,Longest_Hole_Outs_in_yards_DISTANCE,Longest_Hole_Outs_in_yards_TOURNAMENT,Longest_Hole_Outs_in_yards_ROUND- COURSE,Longest_Hole_Outs_in_yards_HOLE
0,1,1.0,Russell Knox,65,275,Valspar Championship,1,11
1,2,2.0,Emiliano Grillo,65,254,RBC Heritage,2,5
2,3,3.0,Shubhankar Sharma,24,250,the Memorial Tournament presented by Nationwide,2,5
3,4,4.0,Roger Sloan,62,243,AT&T Pebble Beach Pro-Am,2,2
4,5,5.0,Harris English,72,236,THE PLAYERS Championship,1,11
5,6,6.0,Nick Taylor,70,221,Valero Texas Open,3,13
6,7,7.0,Jason Kokrak,68,219,Valspar Championship,3,15
7,8,67.0,Kramer Hickok,59,218,RBC Canadian Open,2,4
8,9,8.0,Lucas Bjerregaard,37,206,PGA Championship,4,17
9,T10,9.0,Francesco Molinari,41,204,Arnold Palmer Invitational presented by Mastercard,1,7
10,T10,10.0,D.A. Points,33,204,Arnold Palmer Invitational presented by Mastercard,1,7
11,12,11.0,Padraig Harrington,17,202,AT&T Byron Nelson,2,13
12,13,12.0,Shawn Stefani,57,200,AT&T Byron Nelson,3,11
13,14,13.0,Branden Grace,62,194,Waste Management Phoenix Open,2,7
14,T15,14.0,Jim Knous,55,193,Farmers Insurance Open,4,3
15,T15,15.0,Adam Schenk,80,193,Arnold Palmer Invitational presented by Mastercard,3,9
16,17,16.0,Ryan Moore,54,190,THE PLAYERS Championship,3,5
17,18,17.0,Patton Kizzire,58,186,Sentry Tournament of Champions,1,8
18,T19,18.0,Joaquin Niemann,68,176,Shriners Hospitals for Children Open,3,17
19,T19,19.0,Paul Casey,51,176,World Golf Championships-Mexico Championship,2,14
20,21,20.0,Kelly Kraft,67,173,Sony Open in Hawaii,1,7
21,22,21.0,Alex Cejka,41,170,Sanderson Farms Championship,2,4
22,23,22.0,Si Woo Kim,65,167,Valero Texas Open,2,16
23,T24,23.0,Chesson Hadley,58,162,Waste Management Phoenix Open,4,6
24,T24,24.0,Keith Mitchell,64,162,Sony Open in Hawaii,2,7
25,T24,25.0,Chris Stroud,54,162,Shriners Hospitals for Children Open,1,14
26,27,26.0,Aaron Baddeley,51,158,Safeway Open,2,10
27,28,27.0,Roberto Díaz,51,157,Shriners Hospitals for Children Open,2,3
28,T29,12.0,Shawn Stefani,57,156,Valspar Championship,1,16
29,T29,44.0,Jonas Blixt,66,156,RBC Canadian Open,1,9
30,T29,29.0,Seamus Power,58,156,THE PLAYERS Championship,3,3
31,32,30.0,Sam Ryder,52,154,Safeway Open,2,14
32,33,31.0,Justin Rose,42,153,THE PLAYERS Championship,2,15
33,34,32.0,Sungjae Im,88,152,THE PLAYERS Championship,2,13
34,35,33.0,Chez Reavie,67,149,Sony Open in Hawaii,2,16
35,36,17.0,Patton Kizzire,58,147,Sony Open in Hawaii,2,12
36,37,35.0,J.B. Holmes,54,146,Genesis Open,1,6
37,38,36.0,David Pastore,4,143,Farmers Insurance Open,2,2
38,T39,37.0,Rafa Cabrera Bello,57,142,AT&T Byron Nelson,2,6
39,T39,38.0,J.J. Spaun,68,142,Shriners Hospitals for Children Open,1,12
40,T41,39.0,D.J. Trahan,33,137,Sanderson Farms Championship,3,17
41,T41,40.0,Kevin Streelman,63,137,RBC Heritage,3,10
42,43,41.0,Chad Campbell,24,136,AT&T Byron Nelson,1,3
43,44,33.0,Chez Reavie,67,134,Sony Open in Hawaii,2,6
44,45,43.0,Dylan Frittelli,55,133,PGA Championship,2,2
45,46,44.0,Jonas Blixt,66,132,Charles Schwab Challenge,2,17
46,T47,29.0,Seamus Power,58,131,Genesis Open,2,11
47,T47,45.0,Jason Schmuhl,3,131,AT&T Pebble Beach Pro-Am,2,14
48,T47,47.0,Patrick Rodgers,44,131,Genesis Open,2,7
49,50,48.0,Harold Varner III,62,129,THE PLAYERS Championship,1,1
50,51,49.0,Julián Etulain,55,128,AT&T Byron Nelson,1,10
51,52,50.0,Webb Simpson,53,127,The RSM Classic,3,10
52,53,51.0,Adam Svensson,51,126,Desert Classic,3,2
53,54,52.0,Sam Burns,66,125,RBC Heritage,4,5
54,55,16.0,Ryan Moore,54,122,THE PLAYERS Championship,1,17
55,56,54.0,Jason Day,45,121,the Memorial Tournament presented by Nationwide,2,2
56,57,55.0,J.T. Poston,76,119,Safeway Open,1,18
57,T58,56.0,Brian Stuard,76,116,AT&T Pebble Beach Pro-Am,4,11
58,T58,57.0,Andrew Putnam,57,116,the Memorial Tournament presented by Nationwide,1,14
59,60,58.0,Kevin Na,54,114,THE PLAYERS Championship,2,9
60,61,59.0,Jordan Spieth,57,113,Valero Texas Open,2,8
61,62,60.0,Jon Curran,12,112,The RSM Classic,2,16
62,T63,61.0,Charles Howell III,64,111,THE PLAYERS Championship,1,4
63,T63,62.0,Rickie Fowler,54,111,Arnold Palmer Invitational presented by Mastercard,2,3
64,65,22.0,Si Woo Kim,65,110,Sony Open in Hawaii,2,1
65,66,64.0,Steve Marino,12,108,Desert Classic,4,7
66,T67,65.0,Xander Schauffele,55,107,Sentry Tournament of Champions,4,12
67,T67,66.0,Stuart Appleby,12,107,The RSM Classic,3,5
68,69,67.0,Kramer Hickok,59,104,Valspar Championship,2,1
69,70,68.0,Tom Lovelady,27,103,Sanderson Farms Championship,4,2
70,T71,69.0,Adam Scott,41,102,Farmers Insurance Open,3,2
71,T71,70.0,David Hearn,41,102,Desert Classic,3,12
72,T73,33.0,Chez Reavie,67,101,Sony Open in Hawaii,2,10
73,T73,25.0,Chris Stroud,54,101,Safeway Open,2,18
74,75,73.0,Matthew Fitzpatrick,42,100,Charles Schwab Challenge,1,11
75,76,74.0,Peter Malnati,64,99,Valero Texas Open,4,11
76,77,127.0,Rod Pampling,40,94,RBC Canadian Open,1,10
77,T78,20.0,Kelly Kraft,67,93,PGA Championship,2,5
78,T78,59.0,Jordan Spieth,57,93,Farmers Insurance Open,3,13
79,80,39.0,D.J. Trahan,33,91,RBC Canadian Open,1,15
80,T81,77.0,Kevin Kisner,65,90,Desert Classic,2,11
81,T81,78.0,Lucas Glover,62,90,PGA Championship,2,13
82,T83,79.0,Scott Brown,66,88,Farmers Insurance Open,3,18
83,T83,80.0,Michael Thompson,56,88,Genesis Open,1,17
84,85,27.0,Roberto Díaz,51,84,Sony Open in Hawaii,2,12
85,T86,40.0,Kevin Streelman,63,83,Desert Classic,4,14
86,T86,83.0,Patrick Cantlay,49,83,Safeway Open,2,17
87,88,62.0,Rickie Fowler,54,80,THE PLAYERS Championship,2,2
88,T89,85.0,Peter Uihlein,65,75,Safeway Open,1,6
89,T89,86.0,Mackenzie Hughes,58,75,Genesis Open,1,17
90,91,32.0,Sungjae Im,88,73,RBC Canadian Open,4,10
91,92,87.0,Ollie Schniederjans,63,71,THE PLAYERS Championship,3,9
92,93,88.0,Scottie Scheffler,12,61,Valero Texas Open,4,5
93,94,89.0,Adam Hadwin,66,60,Desert Classic,1,16
94,T95,90.0,Tyrone Van Aswegen,30,59,Safeway Open,1,16
95,T95,91.0,José de Jesús Rodríguez,51,59,Valero Texas Open,1,1
96,97,92.0,Robert Streb,60,58,Shriners Hospitals for Children Open,1,15
97,98,93.0,Zach Johnson,50,57,Sony Open in Hawaii,1,9
98,99,94.0,Mark Mulder,2,55,Safeway Open,1,6
99,100,95.0,Luke List,52,54,Genesis Open,2,17
100,T101,88.0,Scottie Scheffler,12,52,Valero Texas Open,3,5
101,T101,97.0,Bryson DeChambeau,45,52,Genesis Open,2,17
102,T101,98.0,Brendan Steele,50,52,Desert Classic,4,18
103,T101,99.0,Justin Thomas,49,52,The Honda Classic,2,3
104,T105,51.0,Adam Svensson,51,50,AT&T Byron Nelson,1,1
105,T105,101.0,Hank Lebioda,55,50,Valero Texas Open,4,17
106,T105,58.0,Kevin Na,54,50,Shriners Hospitals for Children Open,2,7
107,108,103.0,Danny Lee,66,48,Valero Texas Open,4,5
108,109,104.0,Thorbjørn Olesen,27,47,THE PLAYERS Championship,4,12
109,110,95.0,Luke List,52,45,Safeway Open,4,14
110,111,,Chris Thompson,34,44,RBC Canadian Open,2,5
111,T112,95.0,Luke List,52,43,Wells Fargo Championship,3,9
112,T112,107.0,Kurt Kitayama,4,43,PGA Championship,2,16
113,T112,108.0,Bill Haas,58,43,AT&T Byron Nelson,2,18
114,115,109.0,Kyle Jones,49,42,Valero Texas Open,3,17
115,T116,110.0,Brendon Todd,23,41,The RSM Classic,3,11
116,T116,67.0,Kramer Hickok,59,41,Sanderson Farms Championship,2,3
117,T118,103.0,Danny Lee,66,40,Safeway Open,2,18
118,T118,29.0,Seamus Power,58,40,RBC Heritage,3,8
119,T120,103.0,Danny Lee,66,39,the Memorial Tournament presented by Nationwide,1,1
120,T120,65.0,Xander Schauffele,55,39,Charles Schwab Challenge,2,14
121,T120,116.0,Tommy Fleetwood,43,39,World Golf Championships-Mexico Championship,2,2
122,T123,117.0,Carlos Ortiz,60,37,AT&T Byron Nelson,2,1
123,T123,118.0,Brian Gay,79,37,The Honda Classic,4,7
124,T125,33.0,Chez Reavie,67,36,PGA Championship,1,1
125,T125,61.0,Charles Howell III,64,36,Genesis Open,3,2
126,T127,121.0,Sung Kang,67,35,Genesis Open,1,11
127,T127,122.0,Tae Hee Lee,8,35,Genesis Open,4,5
128,T127,123.0,Jason Dufner,56,35,Wells Fargo Championship,2,1
129,T127,124.0,Jason Bohn,8,35,Sanderson Farms Championship,1,8
130,T127,101.0,Hank Lebioda,55,35,Sanderson Farms Championship,2,11
131,T127,121.0,Sung Kang,67,35,Valero Texas Open,2,6
132,T133,127.0,Rod Pampling,40,34,AT&T Byron Nelson,1,2
133,T133,128.0,Max Homa,61,34,Safeway Open,4,9
134,T135,129.0,George Cunningham,7,33,Shriners Hospitals for Children Open,4,13
135,T135,130.0,Brooks Koepka,49,33,THE PLAYERS Championship,3,18
136,T135,30.0,Sam Ryder,52,33,Valero Texas Open,2,2
137,T135,132.0,Matt Every,38,33,AT&T Byron Nelson,3,1
138,T139,67.0,Kramer Hickok,59,32,Genesis Open,3,2
139,T139,441.0,Whee Kim,57,32,RBC Canadian Open,2,2
140,T139,78.0,Lucas Glover,62,32,Wells Fargo Championship,1,13
141,T139,135.0,Martin Kaymer,38,32,Arnold Palmer Invitational presented by Mastercard,3,14
142,T139,80.0,Michael Thompson,56,32,the Memorial Tournament presented by Nationwide,1,13
143,T139,137.0,Brandon Hagy,27,32,The Honda Classic,2,17
144,T139,,Zach Bauchou,4,32,RBC Canadian Open,2,9
145,T139,138.0,Brice Garnett,63,32,THE PLAYERS Championship,4,12
146,T139,139.0,Joey Garber,44,32,AT&T Byron Nelson,2,10
147,T148,104.0,Thorbjørn Olesen,27,31,World Golf Championships-Mexico Championship,4,2
148,T148,141.0,K.J. Choi,20,31,the Memorial Tournament presented by Nationwide,2,18
149,T148,25.0,Chris Stroud,54,31,Waste Management Phoenix Open,3,3
150,T148,142.0,Hudson Swafford,59,31,Safeway Open,1,18
151,T148,55.0,J.T. Poston,76,31,Sony Open in Hawaii,4,18
152,T148,145.0,Jim Furyk,53,31,Genesis Open,3,4
153,T154,146.0,Martin Piller,30,30,AT&T Pebble Beach Pro-Am,2,9
154,T154,147.0,Luke Donald,22,30,Valspar Championship,4,1
155,T154,26.0,Aaron Baddeley,51,30,Arnold Palmer Invitational presented by Mastercard,3,14
156,T154,149.0,Louis Oosthuizen,43,30,THE PLAYERS Championship,1,12
157,T154,103.0,Danny Lee,66,30,Valero Texas Open,3,5
158,T159,151.0,Patrick Reed,53,29,THE PLAYERS Championship,1,16
159,T159,123.0,Jason Dufner,56,29,The Honda Classic,2,3
160,T159,153.0,Scott Piercy,70,29,Arnold Palmer Invitational presented by Mastercard,3,14
161,T159,154.0,Matt Wallace,31,29,THE PLAYERS Championship,4,10
162,T159,155.0,Brandt Snedeker,68,29,Valspar Championship,3,16
163,T159,156.0,Talor Gooch,37,29,Farmers Insurance Open,3,9
164,T159,97.0,Bryson DeChambeau,45,29,Arnold Palmer Invitational presented by Mastercard,1,4
165,T159,158.0,Martin Laird,60,29,THE PLAYERS Championship,2,9
166,T167,5.0,Harris English,72,28,Safeway Open,2,9
167,T167,74.0,Peter Malnati,64,28,Charles Schwab Challenge,2,15
168,T167,161.0,Chad Collins,25,28,Safeway Open,2,2
169,T167,97.0,Bryson DeChambeau,45,28,RBC Heritage,2,3
170,T167,,Marc-Étienne Bussières,2,28,RBC Canadian Open,2,15
171,T167,163.0,Kiradech Aphibarnrat,49,28,PGA Championship,4,9
172,T167,165.0,Matt Kuchar,65,28,RBC Heritage,4,3
173,T167,164.0,Sebastián Muñoz,58,28,Safeway Open,1,7
174,T167,37.0,Rafa Cabrera Bello,57,28,RBC Heritage,1,11
175,T167,166.0,Bud Cauley,61,28,Arnold Palmer Invitational presented by Mastercard,2,4
176,T167,168.0,Stephan Jaeger,59,28,Valspar Championship,1,1
177,T178,169.0,Billy Horschel,73,27,Sentry Tournament of Champions,2,8
178,T178,149.0,Louis Oosthuizen,43,27,Valspar Championship,4,1
179,T178,171.0,John Huh,35,27,The Honda Classic,3,1
180,T178,51.0,Adam Svensson,51,27,Farmers Insurance Open,2,12
181,T178,99.0,Justin Thomas,49,27,Sony Open in Hawaii,1,18
182,T178,174.0,Bubba Watson,47,27,Valspar Championship,4,7
183,T178,175.0,Andrew Landry,56,27,Sentry Tournament of Champions,1,17
184,T185,176.0,Stewart Cink,33,26,Sony Open in Hawaii,4,4
185,T185,93.0,Zach Johnson,50,26,The Honda Classic,1,3
186,T185,142.0,Hudson Swafford,59,26,Arnold Palmer Invitational presented by Mastercard,1,6
187,T185,,Collin Morikawa,4,26,RBC Canadian Open,3,9
188,T185,55.0,J.T. Poston,76,26,Waste Management Phoenix Open,2,11
189,T185,180.0,Matthew Short,4,26,Wells Fargo Championship,4,2
190,T185,44.0,Jonas Blixt,66,26,The Honda Classic,2,11
191,T185,182.0,Davis Love III,29,26,The RSM Classic,4,3
192,T185,183.0,Tim Herron,18,26,Charles Schwab Challenge,2,13
193,T185,184.0,Dominic Bozzelli,53,26,Shriners Hospitals for Children Open,4,13
194,T185,132.0,Matt Every,38,26,Charles Schwab Challenge,2,7
195,T185,153.0,Scott Piercy,70,26,THE PLAYERS Championship,4,6
196,T197,188.0,Matt Jones,67,25,Farmers Insurance Open,3,8
197,T197,164.0,Sebastián Muñoz,58,25,Sanderson Farms Championship,2,16
198,T197,19.0,Paul Casey,51,25,Genesis Open,3,4
199,T197,15.0,Adam Schenk,80,25,Waste Management Phoenix Open,2,13
